[{"OBJECT_NAME":"TRANSPORTER-15 OBJECT D","OBJECT_ID":"2025-276D","EPOCH":"2026-03-09T22:32:09.904128","MEAN_MOTION":15.22139186,"ECCENTRICITY":0.00067442,"INCLINATION":97.4144,"RA_OF_ASC_NODE":144.1989,"ARG_OF_PERICENTER":10.0477,"MEAN_ANOMALY":350.0893,"EPHEMERIS_TYPE":0,"CLASSIFICATION_TYPE":"U","NORAD_CAT_ID":66669,"ELEMENT_SET_NO":999,"REV_AT_EPOCH":1536,"BSTAR":0.0013516428,"MEAN_MOTION_DOT":0.00031039,"MEAN_MOTION_DDOT":0},{"OBJECT_NAME":"LVM3 R\/B","OBJECT_ID":"2025-309B","EPOCH":"2026-03-09T09:43:32.310048","MEAN_MOTION":15.20640009,"ECCENTRICITY":0.00083638,"INCLINATION":52.9312,"RA_OF_ASC_NODE":66.7134,"ARG_OF_PERICENTER":206.7636,"MEAN_ANOMALY":153.2927,"EPHEMERIS_TYPE":0,"CLASSIFICATION_TYPE":"U","NORAD_CAT_ID":67233,"ELEMENT_SET_NO":999,"REV_AT_EPOCH":1145,"BSTAR":0.00041930553,"MEAN_MOTION_DOT":9.009e-5,"MEAN_MOTION_DDOT":0}]
